UNKNOWN                 
1 81599U          25364.45151154  .00000554  00000+0  10892-2 0  9993
2 81599  67.2931 242.6551 0245403  71.3056 106.8181 13.31456993587433
UNKNOWN                 
1 81605U          26003.11802267  .00002375  00000+0  99530-2 0  9992
2 81605  56.4356 152.9945 0178507 159.3884 201.4360 12.81550068188944
UNKNOWN                 
1 81614U          25362.93808459  .00006376  00000+0  41114-1 0  9997
2 81614 101.8208 358.2906 0333303 117.4365 246.1008 12.37272975539987
UNKNOWN                 
1 81615U          26002.42488008  .00001848  00000+0  68106-3 0  9999
2 81615  65.8280  13.9228 0769929 126.9630 240.4471 13.34154155585626
UNKNOWN                 
1 81617U          26002.95050206  .00000499  00000+0  32128-2 0  9999
2 81617 101.2595 181.4775 0039141 203.0109 156.9214 12.57552601555775
UNKNOWN                 
1 81624U          26002.57922858  .00016590  00000+0  25857-2 0  9996
2 81624  66.9768 109.3426 0069846 220.9702 138.6161 14.71381363642774
UNKNOWN                 
1 81640U          26003.49514728  .00000251  00000+0  28607-3 0  9993
2 81640  65.8267  87.4436 0976370  68.8026 301.4399 12.57234393512814
UNKNOWN                 
1 81652U          25355.17970245  .00000611  00000+0  77035-3 0  9999
2 81652 102.1470 245.4139 0368004 340.8161 173.3701 13.44387754579785
UNKNOWN                 
1 81667U          25364.27635684  .00004751  00000+0  12812-2 0  9991
2 81667  74.0414   3.7417 0017873 290.1822  69.7415 14.48073041459183
UNKNOWN                 
1 81674U          26002.29485003  .00002042  00000+0  11968-2 0  9991
2 81674  66.8243 312.5108 0030094 219.1286 296.6724 14.09977125616613
UNKNOWN                 
1 81683U          26003.16681982  .00005726  00000+0  12511-2 0  9999
2 81683  81.2180 272.7756 0022167 232.4365 127.4819 14.57557931638980
UNKNOWN                 
1 81693U          26003.41032842  .00000793  00000+0  59863-2 0  9993
2 81693 101.0927  67.4615 0365442  43.4533 319.4723 12.25922486970426
