CCSDS_OMM_VERS = 2.0
CREATION_DATE  = 
ORIGINATOR     = 

OBJECT_NAME    = UNKNOWN
OBJECT_ID      = 
CENTER_NAME    = EARTH
REF_FRAME      = TEME
TIME_SYSTEM    = UTC
MEAN_ELEMENT_THEORY = SGP/SGP4

EPOCH          = 2025-12-30T10:50:10.597056
MEAN_MOTION    = 13.31456993
ECCENTRICITY   = .0245403
INCLINATION    = 67.2931
RA_OF_ASC_NODE = 242.6551
ARG_OF_PERICENTER = 71.3056
MEAN_ANOMALY   = 106.8181

EPHEMERIS_TYPE = 0
CLASSIFICATION_TYPE = U
NORAD_CAT_ID   = 81599
ELEMENT_SET_NO = 999
REV_AT_EPOCH   = 58743
BSTAR          = .10892E-2
MEAN_MOTION_DOT = .554E-5
MEAN_MOTION_DDOT = 0

CCSDS_OMM_VERS = 2.0
CREATION_DATE  = 
ORIGINATOR     = 

OBJECT_NAME    = UNKNOWN
OBJECT_ID      = 
CENTER_NAME    = EARTH
REF_FRAME      = TEME
TIME_SYSTEM    = UTC
MEAN_ELEMENT_THEORY = SGP/SGP4

EPOCH          = 2026-01-03T02:49:57.158688
MEAN_MOTION    = 12.81550068
ECCENTRICITY   = .0178507
INCLINATION    = 56.4356
RA_OF_ASC_NODE = 152.9945
ARG_OF_PERICENTER = 159.3884
MEAN_ANOMALY   = 201.4360

EPHEMERIS_TYPE = 0
CLASSIFICATION_TYPE = U
NORAD_CAT_ID   = 81605
ELEMENT_SET_NO = 999
REV_AT_EPOCH   = 18894
BSTAR          = .9953E-2
MEAN_MOTION_DOT = .2375E-4
MEAN_MOTION_DDOT = 0

CCSDS_OMM_VERS = 2.0
CREATION_DATE  = 
ORIGINATOR     = 

OBJECT_NAME    = UNKNOWN
OBJECT_ID      = 
CENTER_NAME    = EARTH
REF_FRAME      = TEME
TIME_SYSTEM    = UTC
MEAN_ELEMENT_THEORY = SGP/SGP4

EPOCH          = 2025-12-28T22:30:50.508576
MEAN_MOTION    = 12.37272975
ECCENTRICITY   = .0333303
INCLINATION    = 101.8208
RA_OF_ASC_NODE = 358.2906
ARG_OF_PERICENTER = 117.4365
MEAN_ANOMALY   = 246.1008

EPHEMERIS_TYPE = 0
CLASSIFICATION_TYPE = U
NORAD_CAT_ID   = 81614
ELEMENT_SET_NO = 999
REV_AT_EPOCH   = 53998
BSTAR          = .41114E-1
MEAN_MOTION_DOT = .6376E-4
MEAN_MOTION_DDOT = 0

CCSDS_OMM_VERS = 2.0
CREATION_DATE  = 
ORIGINATOR     = 

OBJECT_NAME    = UNKNOWN
OBJECT_ID      = 
CENTER_NAME    = EARTH
REF_FRAME      = TEME
TIME_SYSTEM    = UTC
MEAN_ELEMENT_THEORY = SGP/SGP4

EPOCH          = 2026-01-02T10:11:49.638912
MEAN_MOTION    = 13.34154155
ECCENTRICITY   = .0769929
INCLINATION    = 65.8280
RA_OF_ASC_NODE = 13.9228
ARG_OF_PERICENTER = 126.9630
MEAN_ANOMALY   = 240.4471

EPHEMERIS_TYPE = 0
CLASSIFICATION_TYPE = U
NORAD_CAT_ID   = 81615
ELEMENT_SET_NO = 999
REV_AT_EPOCH   = 58562
BSTAR          = .68106E-3
MEAN_MOTION_DOT = .1848E-4
MEAN_MOTION_DDOT = 0

CCSDS_OMM_VERS = 2.0
CREATION_DATE  = 
ORIGINATOR     = 

OBJECT_NAME    = UNKNOWN
OBJECT_ID      = 
CENTER_NAME    = EARTH
REF_FRAME      = TEME
TIME_SYSTEM    = UTC
MEAN_ELEMENT_THEORY = SGP/SGP4

EPOCH          = 2026-01-02T22:48:43.377984
MEAN_MOTION    = 12.57552601
ECCENTRICITY   = .0039141
INCLINATION    = 101.2595
RA_OF_ASC_NODE = 181.4775
ARG_OF_PERICENTER = 203.0109
MEAN_ANOMALY   = 156.9214

EPHEMERIS_TYPE = 0
CLASSIFICATION_TYPE = U
NORAD_CAT_ID   = 81617
ELEMENT_SET_NO = 999
REV_AT_EPOCH   = 55577
BSTAR          = .32128E-2
MEAN_MOTION_DOT = .499E-5
MEAN_MOTION_DDOT = 0

CCSDS_OMM_VERS = 2.0
CREATION_DATE  = 
ORIGINATOR     = 

OBJECT_NAME    = UNKNOWN
OBJECT_ID      = 
CENTER_NAME    = EARTH
REF_FRAME      = TEME
TIME_SYSTEM    = UTC
MEAN_ELEMENT_THEORY = SGP/SGP4

EPOCH          = 2026-01-02T13:54:05.349312
MEAN_MOTION    = 14.71381363
ECCENTRICITY   = .0069846
INCLINATION    = 66.9768
RA_OF_ASC_NODE = 109.3426
ARG_OF_PERICENTER = 220.9702
MEAN_ANOMALY   = 138.6161

EPHEMERIS_TYPE = 0
CLASSIFICATION_TYPE = U
NORAD_CAT_ID   = 81624
ELEMENT_SET_NO = 999
REV_AT_EPOCH   = 64277
BSTAR          = .25857E-2
MEAN_MOTION_DOT = .1659E-3
MEAN_MOTION_DDOT = 0

CCSDS_OMM_VERS = 2.0
CREATION_DATE  = 
ORIGINATOR     = 

OBJECT_NAME    = UNKNOWN
OBJECT_ID      = 
CENTER_NAME    = EARTH
REF_FRAME      = TEME
TIME_SYSTEM    = UTC
MEAN_ELEMENT_THEORY = SGP/SGP4

EPOCH          = 2026-01-03T11:53:00.724992
MEAN_MOTION    = 12.57234393
ECCENTRICITY   = .097637
INCLINATION    = 65.8267
RA_OF_ASC_NODE = 87.4436
ARG_OF_PERICENTER = 68.8026
MEAN_ANOMALY   = 301.4399

EPHEMERIS_TYPE = 0
CLASSIFICATION_TYPE = U
NORAD_CAT_ID   = 81640
ELEMENT_SET_NO = 999
REV_AT_EPOCH   = 51281
BSTAR          = .28607E-3
MEAN_MOTION_DOT = .251E-5
MEAN_MOTION_DDOT = 0

CCSDS_OMM_VERS = 2.0
CREATION_DATE  = 
ORIGINATOR     = 

OBJECT_NAME    = UNKNOWN
OBJECT_ID      = 
CENTER_NAME    = EARTH
REF_FRAME      = TEME
TIME_SYSTEM    = UTC
MEAN_ELEMENT_THEORY = SGP/SGP4

EPOCH          = 2025-12-21T04:18:46.291680
MEAN_MOTION    = 13.44387754
ECCENTRICITY   = .0368004
INCLINATION    = 102.1470
RA_OF_ASC_NODE = 245.4139
ARG_OF_PERICENTER = 340.8161
MEAN_ANOMALY   = 173.3701

EPHEMERIS_TYPE = 0
CLASSIFICATION_TYPE = U
NORAD_CAT_ID   = 81652
ELEMENT_SET_NO = 999
REV_AT_EPOCH   = 57978
BSTAR          = .77035E-3
MEAN_MOTION_DOT = .611E-5
MEAN_MOTION_DDOT = 0

CCSDS_OMM_VERS = 2.0
CREATION_DATE  = 
ORIGINATOR     = 

OBJECT_NAME    = UNKNOWN
OBJECT_ID      = 
CENTER_NAME    = EARTH
REF_FRAME      = TEME
TIME_SYSTEM    = UTC
MEAN_ELEMENT_THEORY = SGP/SGP4

EPOCH          = 2025-12-30T06:37:57.230976
MEAN_MOTION    = 14.48073041
ECCENTRICITY   = .0017873
INCLINATION    = 74.0414
RA_OF_ASC_NODE = 3.7417
ARG_OF_PERICENTER = 290.1822
MEAN_ANOMALY   = 69.7415

EPHEMERIS_TYPE = 0
CLASSIFICATION_TYPE = U
NORAD_CAT_ID   = 81667
ELEMENT_SET_NO = 999
REV_AT_EPOCH   = 45918
BSTAR          = .12812E-2
MEAN_MOTION_DOT = .4751E-4
MEAN_MOTION_DDOT = 0

CCSDS_OMM_VERS = 2.0
CREATION_DATE  = 
ORIGINATOR     = 

OBJECT_NAME    = UNKNOWN
OBJECT_ID      = 
CENTER_NAME    = EARTH
REF_FRAME      = TEME
TIME_SYSTEM    = UTC
MEAN_ELEMENT_THEORY = SGP/SGP4

EPOCH          = 2026-01-02T07:04:35.042592
MEAN_MOTION    = 14.09977125
ECCENTRICITY   = .0030094
INCLINATION    = 66.8243
RA_OF_ASC_NODE = 312.5108
ARG_OF_PERICENTER = 219.1286
MEAN_ANOMALY   = 296.6724

EPHEMERIS_TYPE = 0
CLASSIFICATION_TYPE = U
NORAD_CAT_ID   = 81674
ELEMENT_SET_NO = 999
REV_AT_EPOCH   = 61661
BSTAR          = .11968E-2
MEAN_MOTION_DOT = .2042E-4
MEAN_MOTION_DDOT = 0

CCSDS_OMM_VERS = 2.0
CREATION_DATE  = 
ORIGINATOR     = 

OBJECT_NAME    = UNKNOWN
OBJECT_ID      = 
CENTER_NAME    = EARTH
REF_FRAME      = TEME
TIME_SYSTEM    = UTC
MEAN_ELEMENT_THEORY = SGP/SGP4

EPOCH          = 2026-01-03T04:00:13.232448
MEAN_MOTION    = 14.57557931
ECCENTRICITY   = .0022167
INCLINATION    = 81.2180
RA_OF_ASC_NODE = 272.7756
ARG_OF_PERICENTER = 232.4365
MEAN_ANOMALY   = 127.4819

EPHEMERIS_TYPE = 0
CLASSIFICATION_TYPE = U
NORAD_CAT_ID   = 81683
ELEMENT_SET_NO = 999
REV_AT_EPOCH   = 63898
BSTAR          = .12511E-2
MEAN_MOTION_DOT = .5726E-4
MEAN_MOTION_DDOT = 0

CCSDS_OMM_VERS = 2.0
CREATION_DATE  = 
ORIGINATOR     = 

OBJECT_NAME    = UNKNOWN
OBJECT_ID      = 
CENTER_NAME    = EARTH
REF_FRAME      = TEME
TIME_SYSTEM    = UTC
MEAN_ELEMENT_THEORY = SGP/SGP4

EPOCH          = 2026-01-03T09:50:52.375488
MEAN_MOTION    = 12.25922486
ECCENTRICITY   = .0365442
INCLINATION    = 101.0927
RA_OF_ASC_NODE = 67.4615
ARG_OF_PERICENTER = 43.4533
MEAN_ANOMALY   = 319.4723

EPHEMERIS_TYPE = 0
CLASSIFICATION_TYPE = U
NORAD_CAT_ID   = 81693
ELEMENT_SET_NO = 999
REV_AT_EPOCH   = 97042
BSTAR          = .59863E-2
MEAN_MOTION_DOT = .793E-5
MEAN_MOTION_DDOT = 0

